C/2022 L1 (Catalina),e,123.4438,300.0325,59.8251,474.7126,0.0000953,0.99664864,0.0000,09/28.0978/2022,2000,g 15.8,4.0
# From MPEC 2024-O39
C/2022 L2 (ATLAS),h,03/12.2447/2024,129.3135,39.2405,199.9131,1.001187,2.692727,2000,6.5,4.0
# From MPEC 2024-DC6
P/2022 L3 (ATLAS),e,21.5419,29.8119,10.3843,6.504320,0.0594157,0.62766005,40.6406,09/13.0/2024,2000,g 16.5,4.0
# From MPEC 2022-N37
C/2022 L4 (PANSTARRS),e,141.2457,66.0671,125.3055,285.6856,0.0002041,0.98945645,0.0000,12/08.9911/2021,2000,g 14.0,4.0
# From MPEC 2024-GJ3
C/2022 N1 (Attard-Maury),e,164.7309,301.8769,41.0274,36.88039,0.0044006,0.95987405,3.2300,09/13.0/2024,2000,g 16.9,4.0
# From MPEC 2024-RQ6
C/2022 N2 (PANSTARRS),h,07/31.6815/2025,5.5028,319.7403,75.3769,1.003540,3.825699,2000,6.0,4.0
# From MPEC 2024-A43
C/2022 O1 (ATLAS),h,02/15.8311/2022,71.0425,49.9163,268.9404,1.002394,7.433603,2000,6.0,4.0
# From MPEC 2023-HD1
P/2022 O2 (PANSTARRS),e,9.4220,330.4925,48.6484,6.305626,0.0622460,0.72121150,38.2833,09/13.0/2024,2000,g 16.2,4.0
# From MPEC 2023-N01
C/2022 P1 (NEOWISE),e,154.5996,205.0799,249.9233,18.48546,0.0124011,0.91375956,8.1152,09/13.0/2024,2000,g 13.0,4.0
# From MPEC 2023-XP6
P/2022 P2 (ZTF),e,12.4400,291.1908,137.7159,4.489900,0.1035975,0.55816921,82.3584,09/13.0/2024,2000,g 12.5,4.0
# From MPEC 2023-HD1
C/2022 P3 (ZTF),e,59.5177,72.2158,0.1729,256.5845,0.0002398,0.99000789,0.0000,07/27.4927/2022,2000,g  9.0,4.0
# From MPEC 2023-R20
C/2022 Q2 (ATLAS),e,151.4747,352.9560,44.0626,32.85326,0.0052340,0.94997981,3.0898,09/13.0/2024,2000,g 13.0,4.0
# From MPEC 2024-RQ6
C/2022 QE78 (ATLAS),h,09/10.4956/2025,36.5614,119.9237,0.4341,1.004291,5.478185,2000,5.0,4.0
# From MPEC 2024-M41
P/2022 R1 (PANSTARRS),e,7.3713,175.7951,221.9258,7.181235,0.0512160,0.50292862,17.5664,09/13.0/2024,2000,g 11.5,4.0
# From MPEC 2022-Y15
C/2022 R2 (ATLAS),e,52.9068,60.4119,78.3289,426.3290,0.0001120,0.99851943,0.0000,10/25.3588/2022,2000,g 17.0,4.0
# From MPEC 2024-LE0
C/2022 R3 (Leonard),h,03/05.7112/2023,43.0797,8.2489,72.9068,1.001376,5.130281,2000,9.0,4.0
# From MPEC 2022-X67
P/2022 R4 (PANSTARRS),e,21.0162,176.6328,197.4824,3.837687,0.1310991,0.48981043,104.3243,09/13.0/2024,2000,g 16.5,4.0
# From MPEC 2022-WQ9
P/2022 R5 (PANSTARRS),e,15.2933,115.0482,240.5608,3.069110,0.1833096,0.19503774,153.9803,09/13.0/2024,2000,g 16.0,4.0
# From MPEC 2024-RQ6
C/2022 R6 (PANSTARRS),h,08/25.7246/2025,57.0201,150.7827,319.8751,1.004781,6.566275,2000,5.0,4.0
# From MPEC 2023-HD1
P/2022 S1 (PANSTARRS),e,34.5735,136.0933,262.8186,6.408759,0.0607496,0.50791792,45.9118,09/13.0/2024,2000,g 15.1,4.0
# From MPEC 2022-VC5
C/2022 S3 (PANSTARRS),h,01/21.6928/2023,78.5158,157.2923,267.9699,1.000400,0.838333,2000,17.0,4.0
# From MPEC 2024-PC5
C/2022 S4 (Lemmon),e,101.2206,220.1747,268.5567,1238,0.0000226,0.99776875,0.0000,07/18.7531/2024,2000,g  8.0,4.0
# From MPEC 2023-HD1
C/2022 S5 (PANSTARRS),e,136.5271,214.8622,232.8095,20.49833,0.0106200,0.89369535,6.9601,09/13.0/2024,2000,g 16.3,4.0
# From MPEC 2024-O39
C/2022 T1 (Lemmon),h,02/17.4400/2024,22.5440,236.9185,324.3007,1.000128,3.444796,2000,9.0,4.0
# From MPEC 2024-RQ6
C/2022 U1 (Leonard),e,128.1494,72.5259,78.5977,10474,0.0000009,0.99959880,0.0000,03/25.9591/2024,2000,g  8.5,4.0
# From MPEC 2023-VM5
C/2022 U2 (ATLAS),e,48.2457,304.4360,147.9581,97.33007,0.0010264,0.98635068,0.0000,01/14.2609/2023,2000,g 16.0,4.0
# From MPEC 2024-GJ3
C/2022 U3 (Bok),h,07/28.5565/2024,33.6586,272.7854,189.1115,1.001534,4.826385,2000,7.5,4.0
# From MPEC 2023-W26
C/2022 U4 (Bok),e,52.0430,132.9168,89.0005,2837,0.0000065,0.99897863,0.0000,08/03.6328/2023,2000,g 10.5,4.0
# From MPEC 2024-H50
C/2022 V2 (Lemmon),e,98.9017,332.8677,168.9505,36.73680,0.0044264,0.94382484,1.3991,09/13.0/2024,2000,g 12.0,4.0
# From MPEC 2023-CD7
P/2022 W1 (Rankin),e,13.4657,38.8197,17.8827,6.972533,0.0535326,0.51663676,38.9663,09/13.0/2024,2000,g 12.5,4.0
# From MPEC 2024-EF7
C/2022 W2 (ATLAS),e,63.5148,320.4473,123.2886,343.7574,0.0001546,0.99091357,0.0000,03/08.7729/2023,2000,g 11.5,4.0
# From MPEC 2024-C04
C/2022 W3 (Leonard),e,103.5692,132.2803,116.5243,278.7113,0.0002118,0.99498520,0.0000,06/22.7746/2023,2000,g 13.0,4.0
# From MPEC 2023-M14
C/2022 Y1 (Hogan),e,18.8551,285.8895,174.8213,12.59469,0.0220507,0.76507435,14.4541,09/13.0/2024,2000,g  9.0,4.0
# From MPEC 2023-TM6
C/2022 Y2 (Lemmon),e,165.8835,216.3487,105.4114,19.70404,0.0112686,0.87108652,6.0917,09/13.0/2024,2000,g 13.5,4.0
# From MPEC 2024-GJ3
C/2023 A1 (Leonard),e,94.7379,318.2906,159.2477,221.8887,0.0002982,0.99173003,0.0000,03/18.6662/2023,2000,g 14.5,4.0
# From MPEC 2023-J95
C/2023 A2 (SWAN),e,94.7088,94.4960,142.5334,429.1653,0.0001109,0.99779474,0.0000,01/20.3638/2023,2000,g 13.5,4.0
# From MPEC 2024-R10
C/2023 A3 (Tsuchinshan-ATLAS),h,09/27.7409/2024,139.1105,21.5594,308.4937,1.000091,0.391411,2000,8.0,3.2
# From MPEC 2024-F34
P/2023 B1 (PANSTARRS),e,14.5885,78.5600,81.5750,7.060503,0.0525352,0.13034368,26.2851,09/13.0/2024,2000,g  5.5,4.0
# From MPEC 2023-XP6
C/2023 B2 (ATLAS),e,40.7697,218.1140,317.3682,592.2095,0.0000684,0.99705860,0.0000,03/10.5064/2023,2000,g 14.5,4.0
# From MPEC 2023-F81
P/2023 B3 (PANSTARRS),e,9.1585,153.9984,240.2714,4.548278,0.1016093,0.12282742,149.1655,09/13.0/2024,2000,g 10.5,4.0
# From MPEC 2024-RQ6
C/2023 C2 (ATLAS),e,48.3190,301.0046,357.4579,3024,0.0000059,0.99921669,0.0000,11/16.8136/2024,2000,g  7.0,4.0
# From MPEC 2024-D33
C/2023 E1 (ATLAS),e,38.2837,164.5247,105.9606,19.33448,0.0115933,0.94686026,5.1006,09/13.0/2024,2000,g 15.5,4.0
# From MPEC 2023-N01
C/2023 F1 (PANSTARRS),e,131.7135,25.2922,216.7397,264.3255,0.0002293,0.99353107,0.0000,06/28.3388/2023,2000,g 16.0,4.0
# From MPEC 2024-R10
C/2023 F3 (ATLAS),h,02/02.6695/2025,145.9631,109.4587,265.5323,1.004110,5.190753,2000,6.0,4.0
# From MPEC 2024-RQ6
C/2023 H1 (PANSTARRS),e,21.7805,292.6492,333.7676,775.3416,0.0000457,0.99426349,0.0000,11/28.7609/2024,2000,g  8.5,4.0
# From MPEC 2024-GJ3
C/2023 H2 (Lemmon),e,113.7534,217.0486,150.6556,243.5129,0.0002594,0.99632620,0.0000,10/29.1755/2023,2000,g 14.0,4.0
# From MPEC 2023-R20
C/2023 H3 (PANSTARRS),e,2.4892,55.0979,193.2974,13.62116,0.0196057,0.61584843,4.0642,09/13.0/2024,2000,g 10.0,4.0
# From MPEC 2023-SQ0
A/2023 H4,e,76.6066,230.8187,64.9802,145.5109,0.0005615,0.98541963,0.0000,08/08.9249/2023,2000,g 18.0,22.0
# From MPEC 2024-MB8
C/2023 H5 (Lemmon),h,06/30.1764/2025,97.8603,159.4817,60.0827,1.000379,4.312855,2000,7.0,4.0
# From MPEC 2024-RQ6
P/2023 JN16 (Lemmon),e,3.7025,11.8764,353.1292,2.695483,0.2227149,0.14682064,335.8298,09/13.0/2024,2000,g 14.0,4.0
# From MPEC 2024-GJ3
C/2023 K1 (ATLAS),e,137.9980,223.7041,337.4457,698.8287,0.0000534,0.99708211,0.0000,09/07.6950/2023,2000,g 13.0,4.0
# From MPEC 2023-N01
P/2023 M1 (PANSTARRS),e,12.2885,216.8605,79.6936,6.844674,0.0550396,0.58710002,15.0592,09/13.0/2024,2000,g 13.5,4.0
# From MPEC 2024-BE0
P/2023 M2 (PANSTARRS),e,19.7269,83.2525,243.1670,5.569693,0.0749820,0.36983080,31.1129,09/13.0/2024,2000,g 12.5,4.0
# From MPEC 2024-RQ6
P/2023 M4 (ATLAS),e,7.5922,296.2924,320.6280,5.449747,0.0774711,0.27900601,68.3697,09/13.0/2024,2000,g  7.5,4.0
# From MPEC 2024-MB8
C/2023 P1 (Nishimura),e,132.4769,66.8421,116.2862,56.85227,0.0022992,0.99604437,0.0000,09/17.6455/2023,2000,g 10.0,4.0
# From MPEC 2024-RQ6
C/2023 Q1 (PANSTARRS),h,12/01.1437/2024,36.6445,7.1390,84.4083,1.005357,2.575704,2000,10.0,4.0
# From MPEC 2024-N80
C/2023 Q2 (PANSTARRS),e,104.0598,92.6788,171.7113,351.3925,0.0001496,0.99086623,0.0000,06/24.0300/2024,2000,g 11.5,4.0
# From MPEC 2024-RQ6
C/2023 R1 (PANSTARRS),h,04/13.6495/2026,149.3161,62.5538,144.2902,1.001688,3.569257,2000,6.0,4.0
# From MPEC 2024-L77
C/2023 R2 (PANSTARRS),h,08/12.1478/2024,30.6894,188.9124,337.3040,1.000218,0.905196,2000,10.5,4.0
# From MPEC 2023-UR6
A/2023 R3,e,12.0853,347.3509,86.9043,674.1600,0.0000563,0.99798599,0.0000,12/18.1883/2023,2000,g 20.0,22.0
# From MPEC 2024-Q20
C/2023 RN3 (ATLAS),e,10.3546,207.0686,130.5036,10.17013,0.0303889,0.49101862,18.2970,09/13.0/2024,2000,g  7.5,4.0
# From MPEC 2024-RQ6
P/2023 S1,e,9.1551,317.2981,180.2561,3.846975,0.1306246,0.31900423,338.5766,09/13.0/2024,2000,g 11.5,4.0
# From MPEC 2023-XP6
C/2023 S2 (ATLAS),e,20.4034,230.4870,78.1705,201.6567,0.0003442,0.99471899,0.0000,10/15.8667/2023,2000,g 15.0,4.0
# From MPEC 2024-P23
C/2023 S3 (Lemmon),e,140.4976,233.8332,281.5660,28.48533,0.0064829,0.97086149,0.0000,01/19.6293/2024,2000,g 16.0,4.0
# From MPEC 2024-BE0
P/2023 T1 (PANSTARRS),e,6.6124,249.5768,202.8524,4.226993,0.1134114,0.33349942,12.8317,09/13.0/2024,2000,g 14.0,4.0
# From MPEC 2024-GJ3
C/2023 T2 (Borisov),e,48.5973,317.5320,111.1989,226.3160,0.0002895,0.99118233,0.0000,12/22.7891/2023,2000,g 14.5,4.0
# From MPEC 2024-M41
C/2023 T3 (Fuls),e,27.2220,246.0006,302.8468,755.3853,0.0000475,0.99530259,0.0000,01/25.3493/2025,2000,g  8.5,4.0
# From MPEC 2024-RQ6
C/2023 TD22 (Lemmon),e,170.4896,5.5560,32.5338,48.12125,0.0029526,0.95102356,359.9903,09/13.0/2024,2000,g 12.5,4.0
# From MPEC 2024-RQ6
C/2023 U1 (Fuls),e,108.1458,305.8086,255.6202,2268,0.0000091,0.99780774,0.0000,10/12.7102/2024,2000,g  8.0,4.0
# From MPEC 2024-RQ6
C/2023 V1 (Lemmon),h,07/13.0559/2025,102.0127,15.0315,103.3121,1.000019,5.092602,2000,8.5,4.0
# From MPEC 2024-D33
P/2023 V2 (PANSTARRS),e,9.8879,95.4724,330.5475,7.230911,0.0506891,0.57070834,11.2584,09/13.0/2024,2000,g 13.5,4.0
# From MPEC 2024-A43
C/2023 V3 (PANSTARRS),e,40.3807,91.3731,291.7582,13.28161,0.0203624,0.66313912,8.2009,09/13.0/2024,2000,g 11.5,4.0
# From MPEC 2024-RQ6
C/2023 V4 (Camarasa-Duszanowicz),h,05/30.3664/2024,67.1301,66.3259,50.8568,1.000985,1.121724,2000,12.0,4.0
# From MPEC 2024-GJ3
C/2023 V5 (Leonard),h,12/13.8766/2023,73.5750,31.5200,56.9605,1.009344,0.846253,2000,21.5,4.0
# From MPEC 2024-AF0
P/2023 V6 (PANSTARRS),e,3.9741,189.9062,193.2283,5.315260,0.0804299,0.17633045,51.6933,09/13.0/2024,2000,g 11.5,4.0
# From MPEC 2024-GJ3
C/2023 X1 (Leonard),e,110.5872,137.0113,321.4674,158.3699,0.0004945,0.99399792,0.0000,10/18.0634/2023,2000,g 13.5,3.2
# From MPEC 2024-RQ6
